1 44953U 20001AR  22365.43556179  .00000962  00000-0  83438-4 0  9993
2 44953  53.0547 153.1729 0001445  55.1032 305.0092 15.06399827165932
1 44953U 20001AR  22365.70094608  .00001581  00000-0  12499-3 0  9993
2 44953  53.0551 151.9800 0001383  65.0682 295.0450 15.06402254165974
1 44953U 20001AR  23001.09903378 -.00000190  00000-0  61589-5 0  9998
2 44953  53.0544 150.1939 0001383  62.3668 297.7461 15.06396020166036
1 44953U 20001AR  23001.43077380 -.00001377  00000-0 -73555-4 0  9995
2 44953  53.0543 148.7052 0001501  64.9033 295.2112 15.06391449166081
1 44953U 20001AR  23001.69616036 -.00001113  00000-0 -55868-4 0  9995
2 44953  53.0544 147.5138 0001527  65.5014 294.6134 15.06393114166121
1 44953U 20001AR  23002.42596699  .00000510  00000-0  53123-4 0  9999
2 44953  53.0558 144.2367 0001545  64.6438 295.4711 15.06405477166232
1 44953U 20001AR  23002.42596699  .00000510  00000-0  53123-4 0  9999
2 44953  53.0558 144.2367 0001545  64.6438 295.4711 15.06405477166232
1 44953U 20001AR  23002.75770865 -.00000636  00000-0 -23834-4 0  9991
2 44953  53.0554 142.7469 0001518  61.6959 298.4183 15.06396659166281
1 44953U 20001AR  23002.75770865 -.00000636  00000-0 -23834-4 0  9991
2 44953  53.0554 142.7469 0001518  61.6959 298.4183 15.06396659166281
1 44953U 20001AR  23003.42117755  .00002290  00000-0  17262-3 0  9992
2 44953  53.0557 139.7684 0001474  60.1424 299.9712 15.06392588166383
1 44953U 20001AR  23004.15099791  .00000435  00000-0  48109-4 0  9996
2 44953  53.0553 136.4921 0001361  58.0131 302.0990 15.06393441166498
1 44953U 20001AR  23004.61541554  .00001706  00000-0  13335-3 0  9990
2 44953  53.0557 134.4074 0001238  57.8409 302.2700 15.06403802166569
1 44953U 20001AR  23004.61541554  .00001706  00000-0  13335-3 0  9990
2 44953  53.0557 134.4074 0001238  57.8409 302.2700 15.06403802166569
1 44953U 20001AR  23005.34522569  .00001932  00000-0  14852-3 0  9992
2 44953  53.0569 131.1322 0001397  54.4636 305.6483 15.06406619166679
1 44953U 20001AR  23005.74330669  .00002374  00000-0  17819-3 0  9991
2 44953  53.0551 129.3443 0001618  60.5120 299.6030 15.06403746166730
1 44953U 20001AR  23006.34043813 -.00000998  00000-0 -48119-4 0  9990
2 44953  53.0554 126.6628 0001542  65.1726 294.9423 15.06399144166827
1 44953U 20001AR  23006.34043813 -.00000998  00000-0 -48119-4 0  9990
2 44953  53.0554 126.6628 0001542  65.1726 294.9423 15.06399144166827
1 44953U 20001AR  23007.33565391 -.00001397  00000-0 -74914-4 0  9996
2 44953  53.0568 122.1986 0001570  45.3636 314.7481 15.06386172166979
1 44953U 20001AR  23007.60103197  .00000151  00000-0  29023-4 0  9994
2 44953  53.0547 121.0049 0001706  55.2329 304.8821 15.06398985167013
1 44953U 20001AR  23007.60103197  .00000151  00000-0  29023-4 0  9994
2 44953  53.0547 121.0049 0001706  55.2329 304.8821 15.06398985167013
1 44953U 20001AR  23008.26450862  .00003068  00000-0  22483-3 0  9993
2 44953  53.0546 118.0272 0001614  50.6505 309.4627 15.06391756167114
1 44953U 20001AR  23008.59624536  .00003735  00000-0  26960-3 0  9995
2 44953  53.0553 116.5376 0001688  50.6153 309.4985 15.06385676167166
1 44953U 20001AR  23009.25970331  .00002919  00000-0  21473-3 0  9993
2 44953  53.0540 113.5582 0001710  45.5234 314.5894 15.06410612167263
1 44953U 20001AR  23009.32604639  .00004456  00000-0  31774-3 0  9999
2 44953  53.0535 113.2612 0001701  44.2579 315.8545 15.06417008167270
1 44953U 20001AR  23009.65775186  .00012192  00000-0  83467-3 0  9993
2 44953  53.0546 111.7697 0001518  43.6100 316.5009 15.06456484167327
1 44953U 20001AR  23009.65775186  .00012192  00000-0  83467-3 0  9993
2 44953  53.0546 111.7697 0001518  43.6100 316.5009 15.06456484167327
1 44953U 20001AR  23010.25490540 -.00003720  00000-0 -23105-3 0  9991
2 44953  53.0506 109.0897 0001861  33.2818 326.8287 15.06385697167416
1 44953U 20001AR  23010.52028699 -.00006591  00000-0 -42412-3 0  9994
2 44953  53.0518 107.9006 0001746  25.1376 334.9697 15.06387611167456
1 44953U 20001AR  23010.52028699 -.00006591  00000-0 -42412-3 0  9994
2 44953  53.0518 107.9006 0001746  25.1376 334.9697 15.06387611167456
1 44953U 20001AR  23011.05106278 -.00003814  00000-0 -23734-3 0  9994
2 44953  53.0546 105.5198 0001900  31.3160 328.7942 15.06392918167534
1 44953U 20001AR  23011.51549244  .00013286  00000-0  90907-3 0  9997
2 44953  53.0540 103.4341 0002054  32.1506 327.9608 15.06402498167602
1 44953U 20001AR  23011.51549244  .00013286  00000-0  90907-3 0  9997
2 44953  53.0540 103.4341 0002054  32.1506 327.9608 15.06402498167602
1 44953U 20001AR  23012.64337327  .00026454  00000-0  17856-2 0  9991
2 44953  53.0540  98.3706 0002367  33.9473 326.1667 15.06452503167774
1 44953U 20001AR  23012.64337327  .00026454  00000-0  17856-2 0  9991
2 44953  53.0540  98.3706 0002367  33.9473 326.1667 15.06452503167774
1 44953U 20001AR  23013.50590307  .00011206  00000-0  77075-3 0  9995
2 44953  53.0551  94.5008 0001816  41.8024 318.3103 15.06362706167905
1 44953U 20001AR  23013.50590307  .00011206  00000-0  77075-3 0  9995
2 44953  53.0551  94.5008 0001816  41.8024 318.3103 15.06362706167905
1 44953U 20001AR  23013.90399280  .00006511  00000-0  45599-3 0  9995
2 44953  53.0539  92.7098 0001963  41.8830 318.2308 15.06366566167968
1 44953U 20001AR  23014.89920717  .00007208  00000-0  50246-3 0  9998
2 44953  53.0524  88.2445 0001888  49.3814 310.7339 15.06385709168118
1 44953U 20001AR  23015.49633324  .00007528  00000-0  52382-3 0  9998
2 44953  53.0538  85.5637 0001951  58.4310 301.6869 15.06393256168202
1 44953U 20001AR  23015.89441490  .00010503  00000-0  72291-3 0  9991
2 44953  53.0544  83.7770 0001938  62.8968 297.2218 15.06403006168269
1 44953U 20001AR  23016.49153132  .00014830  00000-0  10118-2 0  9997
2 44953  53.0521  81.0945 0001925  62.4966 297.6218 15.06420318168358
1 44953U 20001AR  23016.49153132  .00014830  00000-0  10118-2 0  9997
2 44953  53.0521  81.0945 0001925  62.4966 297.6218 15.06420318168358
1 44953U 20001AR  23016.88961439  .00001328  00000-0  10806-3 0  9990
2 44953  53.0511  79.3074 0001800  66.9571 293.1607 15.06401094168413
1 44953U 20001AR  23016.88961439  .00001328  00000-0  10806-3 0  9990
2 44953  53.0511  79.3074 0001800  66.9571 293.1607 15.06401094168413
1 44953U 20001AR  23017.15500777 -.00009724  00000-0 -63515-3 0  9990
2 44953  53.0528  78.1170 0001815  71.6990 288.4196 15.06377708168457
1 44953U 20001AR  23017.42039851  .00001646  00000-0  12945-3 0  9994
2 44953  53.0525  76.9257 0002033  74.0980 286.0233 15.06385823168492
1 44953U 20001AR  23017.42039851  .00001646  00000-0  12945-3 0  9994
2 44953  53.0525  76.9257 0002033  74.0980 286.0233 15.06385823168492
1 44953U 20001AR  23018.34925569  .00032933  00000-0  22178-2 0  9997
2 44953  53.0523  72.7555 0002061  74.8091 285.3126 15.06428248168635
1 44953U 20001AR  23018.48194566  .00034601  00000-0  23280-2 0  9996
2 44953  53.0519  72.1589 0001873  75.3588 284.7609 15.06438724168659
1 44953U 20001AR  23019.41079439  .00028878  00000-0  19479-2 0  9995
2 44953  53.0526  67.9897 0001912  81.8660 278.2546 15.06433437168797
1 44953U 20001AR  23019.47713975  .00024399  00000-0  16499-2 0  9994
2 44953  53.0530  67.6913 0001632  76.7989 283.3182 15.06429456168805
1 44953U 20001AR  23020.14061493  .00025458  00000-0  17219-2 0  9999
2 44953  53.0526  64.7115 0002453  83.4379 276.6889 15.06397309168903
1 44953U 20001AR  23020.40600109  .00013918  00000-0  95142-3 0  9991
2 44953  53.0524  63.5214 0001687  88.0201 272.0982 15.06398248168942
1 44953U 20001AR  23020.80408287  .00008181  00000-0  56748-3 0  9993
2 44953  53.0519  61.7349 0001576  89.0057 271.1113 15.06399665169000
1 44953U 20001AR  23021.26851497  .00000640  00000-0  61864-4 0  9997
2 44953  53.0525  59.6517 0001804  96.3449 263.7745 15.06390243169078
1 44953U 20001AR  23022.46275543  .00005181  00000-0  36638-3 0  9997
2 44953  53.0525  54.2906 0001804  98.5795 261.5398 15.06407126169258
1 44953U 20001AR  23022.79449803  .00001377  00000-0  11136-3 0  9994
2 44953  53.0523  52.8010 0002497  90.1699 269.9576 15.06394207169307
1 44953U 20001AR  23024.25412582  .00000389  00000-0  45036-4 0  9990
2 44953  53.0521  46.2445 0001629  94.0020 266.1155 15.06401302169522
1 44953U 20001AR  23025.11664034  .00002245  00000-0  16959-3 0  9991
2 44953  53.0519  42.3721 0001625  94.2223 265.8951 15.06394685169655
1 44953U 20001AR  23025.31567819  .00003245  00000-0  23664-3 0  9998
2 44953  53.0519  41.4784 0001627  97.2233 262.8941 15.06400090169687
1 44953U 20001AR  23026.31087984  .00002804  00000-0  20703-3 0  9990
2 44953  53.0515  37.0096 0001685 101.0858 259.0321 15.06402421169838
1 44953U 20001AR  23026.31087984  .00002804  00000-0  20703-3 0  9990
2 44953  53.0515  37.0096 0001685 101.0858 259.0321 15.06402421169838
1 44953U 20001AR  23027.23974341  .00000823  00000-0  74182-4 0  9994
2 44953  53.0527  32.8411 0001596  88.4044 271.7128 15.06392375169978
1 44953U 20001AR  23027.23974341  .00000823  00000-0  74182-4 0  9994
2 44953  53.0527  32.8411 0001596  88.4044 271.7128 15.06392375169978
1 44953U 20001AR  23027.83686559  .00000802  00000-0  72773-4 0  9992
2 44953  53.0529  30.1623 0001539  83.2349 276.8815 15.06393731170062
1 44953U 20001AR  23028.36763629  .00000830  00000-0  74617-4 0  9995
2 44953  53.0528  27.7773 0001542  97.4690 262.6474 15.06400082170140
1 44953U 20001AR  23028.36763629  .00000830  00000-0  74617-4 0  9995
2 44953  53.0528  27.7773 0001542  97.4690 262.6474 15.06400082170140
1 44953U 20001AR  23029.36283379  .00002336  00000-0  17567-3 0  9998
2 44953  53.0528  23.3086 0001567  97.2769 262.8398 15.06405411170295
1 44953U 20001AR  23030.22535291  .00001297  00000-0  10600-3 0  9994
2 44953  53.0531  19.4366 0001656  99.2978 260.8198 15.06394718170427
1 44953U 20001AR  23030.35804377  .00001047  00000-0  89169-4 0  9992
2 44953  53.0531  18.8404 0001602  94.0087 266.1085 15.06399627170448
1 44953U 20001AR  23030.95516418  .00000305  00000-0  39364-4 0  9992
2 44953  53.0528  16.1592 0001618  94.1317 265.9856 15.06401940170532
1 44953U 20001AR  23031.35323882  .00001166  00000-0  97139-4 0  9998
2 44953  53.0530  14.3721 0001604  95.0161 265.1011 15.06408306170595
1 44953U 20001AR  23031.35323882  .00001166  00000-0  97139-4 0  9998
2 44953  53.0530  14.3721 0001604  95.0161 265.1011 15.06408306170595
